FENGYUN 1C DEB          
1 30434U 99025AEV 17345.95811407  .00000062  00000-0  83348-4 0  9992
2 30434  99.1373  25.8982 0123853 239.6893 241.7618 13.88428290551290
